DEIMOS-2                
1 40013U 14033D   17346.41769051  .00000213  00000-0  31278-4 0  9994
2 40013  97.8726 248.4136 0002472  85.7359 274.4105 14.84884824188651
